[{"OBJECT_NAME":"LEMUR-2-ANDIS","OBJECT_ID":"2017-042P","EPOCH":"2026-03-09T13:25:33.116448","MEAN_MOTION":15.30557934,"ECCENTRICITY":0.0009101,"INCLINATION":97.3659,"RA_OF_ASC_NODE":249.795,"ARG_OF_PERICENTER":4.3248,"MEAN_ANOMALY":355.807,"EPHEMERIS_TYPE":0,"CLASSIFICATION_TYPE":"U","NORAD_CAT_ID":42838,"ELEMENT_SET_NO":999,"REV_AT_EPOCH":47319,"BSTAR":0.00079875,"MEAN_MOTION_DOT":0.00023598,"MEAN_MOTION_DDOT":0},{"OBJECT_NAME":"STARLINK-34292","OBJECT_ID":"2025-127W","EPOCH":"2026-03-08T15:13:50.616768","MEAN_MOTION":15.27591666,"ECCENTRICITY":0.00021431,"INCLINATION":43.0007,"RA_OF_ASC_NODE":185.9187,"ARG_OF_PERICENTER":286.8262,"MEAN_ANOMALY":73.2355,"EPHEMERIS_TYPE":0,"CLASSIFICATION_TYPE":"U","NORAD_CAT_ID":64390,"ELEMENT_SET_NO":999,"REV_AT_EPOCH":4230,"BSTAR":0.0014806983,"MEAN_MOTION_DOT":0.00040724,"MEAN_MOTION_DDOT":0}]
