LEMUR-2-ANDIS           
1 42838U 17042P   26068.55941107  .00023598  00000+0  79875-3 0  9998
2 42838  97.3659 249.7950 0009101   4.3248 355.8070 15.30557934473198
STARLINK-34292          
1 64390U 25127W   26067.63461362  .00040724  00000+0  14807-2 0  9999
2 64390  43.0007 185.9187 0002143 286.8262  73.2355 15.27591666 42303
